OBJECT_NAME,OBJECT_ID,EPOCH,MEAN_MOTION,ECCENTRICITY,INCLINATION,RA_OF_ASC_NODE,ARG_OF_PERICENTER,MEAN_ANOMALY,EPHEMERIS_TYPE,CLASSIFICATION_TYPE,NORAD_CAT_ID,ELEMENT_SET_NO,REV_AT_EPOCH,BSTAR,MEAN_MOTION_DOT,MEAN_MOTION_DDOT
ONEWEB-0365,2021-090N,2026-06-08T03:56:53.016000,13.19723685,.00017648,87.9172,306.7641,98.0357,262.0976,0,U,49291,999,22523,-.59686897E-4,-.11E-6,0
ONEWEB-0366,2021-090P,2026-06-08T01:45:41.700384,13.14502207,.00019189,87.8957,291.5233,99.6382,260.4964,0,U,49292,999,22636,-.24324079E-3,-.77E-6,0
ONEWEB-0367,2021-090Q,2026-06-08T01:44:10.883616,13.20774272,.00019093,87.9189,276.2572,127.2068,232.9240,0,U,49293,999,22862,-.17062176E-2,-.681E-5,0
ONEWEB-0368,2021-090R,2026-06-07T21:28:24.040416,13.20769886,.00016952,87.9178,276.3039,78.8021,281.3303,0,U,49294,999,22975,.32686226E-3,.146E-5,0
ONEWEB-0369,2021-090S,2026-06-08T03:50:03.851520,13.19724408,.00017509,87.9164,306.7734,95.4351,264.6981,0,U,49295,999,22522,.34680987E-3,.152E-5,0
ONEWEB-0370,2021-090T,2026-06-08T07:24:45.960192,13.20770149,.00020793,87.9193,276.2096,107.3401,252.7960,0,U,49296,999,22869,.10024305E-3,.54E-6,0
ONEWEB-0371,2021-090U,2026-06-08T04:01:25.543200,13.19723815,.00017863,87.9170,306.7634,100.2510,259.8824,0,U,49297,999,22526,-.90036949E-4,-.23E-6,0
ONEWEB-0372,2021-090V,2026-06-08T01:42:45.504864,13.20770808,.00019794,87.9189,276.2585,100.7989,259.3367,0,U,49298,999,22863,-.9292752E-4,-.25E-6,0
ONEWEB-0373,2021-090W,2026-06-08T05:57:30.513312,13.20771296,.00020426,87.9189,276.2237,101.1478,258.9885,0,U,49299,999,22984,.20798547E-3,.98E-6,0
ONEWEB-0374,2021-090X,2026-06-08T01:27:26.093088,13.14502893,.00022976,87.8960,291.5163,87.8589,272.2803,0,U,49300,999,22636,.33668759E-3,.138E-5,0
ONEWEB-0375,2021-090Y,2026-06-08T07:29:38.300640,13.20770674,.00024154,87.9192,276.2024,91.0930,269.0480,0,U,49301,999,22935,-.19285409E-3,-.65E-6,0
ONEWEB-0376,2021-090Z,2026-06-07T22:31:37.604352,13.19724844,.00016241,87.9172,306.8087,96.5746,263.5571,0,U,49302,999,22523,-.62103586E-4,-.12E-6,0
ONEWEB-0377,2021-090AA,2026-06-08T01:43:10.723296,13.20772090,.00021752,87.9190,276.2525,100.2820,259.8559,0,U,49303,999,22931,.6892649E-5,.16E-6,0
ONEWEB-0378,2021-090AB,2026-06-08T07:39:30.606336,13.20770106,.00020055,87.9186,276.2084,96.3913,263.7448,0,U,49304,999,22861,.12529236E-3,.64E-6,0
ONEWEB-0379,2021-090AC,2026-06-08T03:10:11.181504,13.14501537,.00019176,87.8959,291.5131,95.8522,264.2826,0,U,49305,999,22637,.35938316E-3,.146E-5,0
ONEWEB-0380,2021-090AD,2026-06-08T07:32:58.234560,13.19724893,.00020306,87.9164,306.7398,97.9445,262.1918,0,U,49306,999,22525,-.299167E-4,.1E-7,0
ONEWEB-0381,2021-090AE,2026-06-08T01:38:07.737504,13.20771472,.00021466,87.9193,276.2579,94.5468,265.5911,0,U,49307,999,22862,-.4988708E-5,.11E-6,0
ONEWEB-0382,2021-090AF,2026-06-07T18:02:20.502816,13.20769914,.00020631,87.9189,276.3154,92.5922,267.5447,0,U,49308,999,22857,.10064512E-3,.54E-6,0
ONEWEB-0383,2021-090AG,2026-06-08T03:01:01.753536,13.14504194,.00018726,87.8964,291.5054,94.5867,265.5477,0,U,49309,999,22640,.41937699E-3,.168E-5,0
ONEWEB-0384,2021-090AH,2026-06-07T21:24:35.885664,13.20811675,.00021331,87.9191,276.3309,87.5628,272.5749,0,U,49310,999,22860,.53276205E-4,.35E-6,0
ONEWEB-0385,2021-090AJ,2026-06-07T21:30:51.669504,13.20772081,.00020499,87.9188,276.2918,94.9823,265.1544,0,U,49311,999,22857,.28248671E-3,.128E-5,0
ONEWEB-0386,2021-090AK,2026-06-08T01:33:16.720704,13.20770709,.0002009,87.9194,276.2488,92.8914,267.2449,0,U,49312,999,22861,-.26936022E-4,.2E-7,0
ONEWEB-0387,2021-090AL,2026-06-07T17:55:06.262464,13.20771996,.00023118,87.9179,276.3357,99.4672,260.6722,0,U,49313,999,22857,.18064423E-3,.86E-6,0
ONEWEB-0388,2021-090AM,2026-06-08T03:47:47.813856,13.19723995,.00019333,87.9164,306.7691,93.2043,266.9311,0,U,49314,999,22522,-.52320285E-4,-.8E-7,0
ONEWEB-0389,2021-132A,2026-06-08T00:15:01.681632,13.17647830,.00022152,87.9140,7.6942,84.7260,275.4125,0,U,50469,999,21687,.20602323E-4,.21E-6,0
ONEWEB-0390,2021-132B,2026-06-08T00:17:27.433248,13.17647799,.00018858,87.9140,7.6946,93.8092,266.3255,0,U,50470,999,21687,.16595746E-3,.77E-6,0
ONEWEB-0391,2021-132C,2026-06-08T02:09:14.240160,13.17647608,.00026812,87.9140,7.6888,91.7083,268.4356,0,U,50471,999,21688,.555856E-6,.13E-6,0
ONEWEB-0392,2021-132D,2026-06-08T02:52:59.253600,13.17700220,.00024356,87.9151,7.6501,86.6371,273.5039,0,U,50472,999,21692,-.25414623E-1,-.9852E-4,0
ONEWEB-0393,2021-132E,2026-06-08T02:17:45.125952,13.17649308,.00020511,87.9140,7.6731,86.1302,274.0064,0,U,50473,999,21691,-.95128885E-4,-.24E-6,0
ONEWEB-0394,2021-132F,2026-06-07T22:00:32.337216,13.18685022,.00020273,87.9169,337.2869,87.3070,272.8294,0,U,50474,999,22037,.25796219E-3,.115E-5,0
